{
    "links": {
        "self": "http://www.neowsapp.com/rest/v1/neo/3441169?api_key=iIulBulltgU6a56xZRHN4H3l9WmuAYTsLGpBGhQ2"
    },
    "id": "3441169",
    "neo_reference_id": "3441169",
    "name": "(2008 XU2)",
    "designation": "2008 XU2",
    "nasa_jpl_url": "http://ssd.jpl.nasa.gov/sbdb.cgi?sstr=3441169",
    "absolute_magnitude_h": 25.6,
    "estimated_diameter": {
        "kilometers": {
            "estimated_diameter_min": 0.0201629919,
            "estimated_diameter_max": 0.0450858206
        },
        "meters": {
            "estimated_diameter_min": 20.1629919443,
            "estimated_diameter_max": 45.0858206172
        },
        "miles": {
            "estimated_diameter_min": 0.0125286985,
            "estimated_diameter_max": 0.0280150214
        },
        "feet": {
            "estimated_diameter_min": 66.1515504905,
            "estimated_diameter_max": 147.9193637137
        }
    },
    "is_potentially_hazardous_asteroid": false,
    "close_approach_data": [
        {
            "close_approach_date": "2008-11-30",
            "close_approach_date_full": "2008-Nov-30 00:45",
            "epoch_date_close_approach": 1228005900000,
            "relative_velocity": {
                "kilometers_per_second": "11.2279359254",
                "kilometers_per_hour": "40420.5693313784",
                "miles_per_hour": "25115.769871489"
            },
            "miss_distance": {
                "astronomical": "0.0050805091",
                "lunar": "1.9763180399",
                "kilometers": "760033.339875617",
                "miles": "472262.8182808346"
            },
            "orbiting_body": "Moon"
        },
        {
            "close_approach_date": "2008-11-30",
            "close_approach_date_full": "2008-Nov-30 10:29",
            "epoch_date_close_approach": 1228040940000,
            "relative_velocity": {
                "kilometers_per_second": "10.9646633814",
                "kilometers_per_hour": "39472.7881730872",
                "miles_per_hour": "24526.855517883"
            },
            "miss_distance": {
                "astronomical": "0.0054672682",
                "lunar": "2.1267673298",
                "kilometers": "817891.677438734",
                "miles": "508214.3221491692"
            },
            "orbiting_body": "Earth"
        }
    ],
    "orbital_data": {
        "orbit_id": "12",
        "orbit_determination_date": "2017-04-06 09:01:56",
        "first_observation_date": "2008-12-06",
        "last_observation_date": "2009-01-03",
        "data_arc_in_days": 28,
        "observations_used": 44,
        "orbit_uncertainty": "7",
        "minimum_orbit_intersection": ".00209356",
        "jupiter_tisserand_invariant": "3.200",
        "epoch_osculation": "2459000.5",
        "eccentricity": ".6164743617229888",
        "semi_major_axis": "2.455281244013944",
        "inclination": "2.953360196146467",
        "ascending_node_longitude": "62.44034039288225",
        "orbital_period": "1405.239329563699",
        "perihelion_distance": ".9416633062600223",
        "perihelion_argument": "334.1965557712066",
        "aphelion_distance": "3.968899181767866",
        "perihelion_time": "2458981.806301801382",
        "mean_anomaly": "4.789028608807809",
        "mean_motion": ".2561841192644198",
        "equinox": "J2000",
        "orbit_class": {
            "orbit_class_type": "APO",
            "orbit_class_description": "Near-Earth asteroid orbits which cross the Earth’s orbit similar to that of 1862 Apollo",
            "orbit_class_range": "a (semi-major axis) > 1.0 AU; q (perihelion) < 1.017 AU"
        }
    },
    "is_sentry_object": false
}